NORAD_CAT_ID,OBJECT_NAME,OBJECT_TYPE,EPOCH,MEAN_MOTION,ECCENTRICITY,INCLINATION,RA_OF_ASC_NODE,ARG_OF_PERICENTER,MEAN_ANOMALY,BSTAR,MEAN_MOTION_DOT,MEAN_MOTION_DDOT,TLE_LINE0,TLE_LINE1,TLE_LINE2,SEMIMAJOR_AXIS,PERIOD,APOGEE,PERIGEE,DECAYED
51811.0,STARLINK-3569,PAYLOAD,2023-03-26 10:40:43,15.08796512,0.000134,53.215,144.0349,115.6259,244.4872,-0.0003199,-5.369e-05,0.0,0 STARLINK-3569,1 51811U 22017AV  23085.44495182 -.00005369  00000-0 -31990-3 0  9993,2 51811  53.2150 144.0349 0001340 115.6259 244.4872 15.08796512 61132,6918.013,95.44,540.805,538.951,0.0
51811.0,STARLINK-3569,PAYLOAD,2023-03-26 20:13:03,15.08799765,0.0001397,53.2163,142.2535,116.4053,243.7082,0.00063569,9.832e-05,0.0,0 STARLINK-3569,1 51811U 22017AV  23085.84240497  .00009832  00000-0  63569-3 0  9998,2 51811  53.2163 142.2535 0001397 116.4053 243.7082 15.08799765 61099,6918.003,95.44,540.835,538.902,0.0
51811.0,STARLINK-3569,PAYLOAD,2023-03-27 04:09:59,15.08820143,0.0001009,53.2145,140.765,94.058,266.0528,0.0012205,0.00019179,0.0,0 STARLINK-3569,1 51811U 22017AV  23086.17360979  .00019179  00000-0  12205-2 0  9998,2 51811  53.2145 140.7650 0001009  94.0580 266.0528 15.08820143 61241,6917.941,95.439,540.504,539.108,0.0
51811.0,STARLINK-3569,PAYLOAD,2023-03-27 08:56:09,15.08839837,0.0001184,53.2148,139.8735,98.6297,261.4829,0.0017714,0.00028016,0.0,0 STARLINK-3569,1 51811U 22017AV  23086.37232994  .00028016  00000-0  17714-2 0  9995,2 51811  53.2148 139.8735 0001184  98.6297 261.4829 15.08839837 61272,6917.881,95.438,540.565,538.927,0.0
51811.0,STARLINK-3569,PAYLOAD,2023-03-27 20:03:51,15.08853978,0.000109,53.2143,137.792,94.1238,265.9878,0.0013379,0.00021077,0.0,0 STARLINK-3569,1 51811U 22017AV  23086.83600862  .00021077  00000-0  13379-2 0  9992,2 51811  53.2143 137.7920 0001090  94.1238 265.9878 15.08853978 61244,6917.838,95.437,540.457,538.949,0.0
51811.0,STARLINK-3569,PAYLOAD,2023-03-28 04:00:46,15.08854716,0.0001296,53.2154,136.3054,103.6873,256.4264,0.00093794,0.00014677,0.0,0 STARLINK-3569,1 51811U 22017AV  23087.16720721  .00014677  00000-0  93794-3 0  9994,2 51811  53.2154 136.3054 0001296 103.6873 256.4264 15.08854716 61399,6917.835,95.437,540.597,538.804,0.0
51811.0,STARLINK-3569,PAYLOAD,2023-03-28 11:57:42,15.08864852,0.0001257,53.2153,134.8185,102.0854,258.0279,0.00096583,0.00015127,0.0,0 STARLINK-3569,1 51811U 22017AV  23087.49840283  .00015127  00000-0  96583-3 0  9996,2 51811  53.2153 134.8185 0001257 102.0854 258.0279 15.08864852 61346,6917.804,95.436,540.539,538.8,0.0
51811.0,STARLINK-3569,PAYLOAD,2023-03-29 10:13:05,15.08854211,0.0001312,53.2154,130.6556,90.3048,269.8094,0.00049009,7.523e-05,0.0,0 STARLINK-3569,1 51811U 22017AV  23088.42576082  .00007523  00000-0  49009-3 0  9995,2 51811  53.2154 130.6556 0001312  90.3048 269.8094 15.08854211 61588,6917.837,95.437,540.61,538.794,0.0
51811.0,STARLINK-3569,PAYLOAD,2023-03-29 11:48:28,15.08857772,0.0001359,53.2156,130.3582,91.2385,268.8763,0.00062977,9.754e-05,0.0,0 STARLINK-3569,1 51811U 22017AV  23088.49199988  .00009754  00000-0  62977-3 0  9995,2 51811  53.2156 130.3582 0001359  91.2385 268.8763 15.08857772 61498,6917.826,95.436,540.631,538.751,0.0
51811.0,STARLINK-3569,PAYLOAD,2023-03-29 19:45:24,15.08832238,8.27e-05,53.2159,128.8716,160.0625,200.04,-0.0005351,-8.792e-05,0.0,0 STARLINK-3569,1 51811U 22017AV  23088.82319601 -.00008792  00000-0 -53510-3 0  9994,2 51811  53.2159 128.8716 0000827 160.0625 200.0400 15.08832238 61646,6917.904,95.438,540.341,539.197,0.0
51811.0,STARLINK-3569,PAYLOAD,2023-03-30 10:03:52,15.08842325,0.0001346,53.2149,126.1944,118.0643,242.0485,0.00063406,9.818e-05,0.0,0 STARLINK-3569,1 51811U 22017AV  23089.41936199  .00009818  00000-0  63406-3 0  9990,2 51811  53.2149 126.1944 0001346 118.0643 242.0485 15.08842325 61736,6917.873,95.437,540.669,538.807,0.0
51811.0,STARLINK-3569,PAYLOAD,2023-03-30 19:36:11,15.08841512,0.0001266,53.2138,124.4092,111.7371,248.3756,0.00059673,9.222e-05,0.0,0 STARLINK-3569,1 51811U 22017AV  23089.81680430  .00009222  00000-0  59673-3 0  9998,2 51811  53.2138 124.4092 0001266 111.7371 248.3756 15.08841512 61690,6917.876,95.437,540.617,538.865,0.0
51811.0,STARLINK-3569,PAYLOAD,2023-04-01 01:48:31,15.08840919,0.0001302,53.2142,118.7605,95.2009,264.9131,0.0004143,6.312e-05,0.0,0 STARLINK-3569,1 51811U 22017AV  23091.07536718  .00006312  00000-0  41430-3 0  9997,2 51811  53.2142 118.7605 0001302  95.2009 264.9131 15.08840919 61989,6917.878,95.437,540.643,538.842,0.0
51811.0,STARLINK-3569,PAYLOAD,2023-04-01 08:10:04,15.08837779,0.0001311,53.2146,117.5711,91.0325,269.0817,0.00018205,2.61e-05,0.0,0 STARLINK-3569,1 51811U 22017AV  23091.34032910  .00002610  00000-0  18205-3 0  9993,2 51811  53.2146 117.5711 0001311  91.0325 269.0817 15.08837779 61924,6917.887,95.438,540.659,538.845,0.0
51811.0,STARLINK-3569,PAYLOAD,2023-04-02 11:11:37,15.08849066,0.0001319,53.2154,112.514,98.8809,261.2333,0.00039727,6.042e-05,0.0,0 STARLINK-3569,1 51811U 22017AV  23092.46640734  .00006042  00000-0  39727-3 0  9991,2 51811  53.2154 112.5140 0001319  98.8809 261.2333 15.08849066 62092,6917.853,95.437,540.63,538.805,0.0
51811.0,STARLINK-3569,PAYLOAD,2023-04-03 04:40:52,15.08844248,0.0001442,53.2149,109.2409,111.0582,249.0564,0.00018849,2.713e-05,0.0,0 STARLINK-3569,1 51811U 22017AV  23093.19504730  .00002713  00000-0  18849-3 0  9990,2 51811  53.2149 109.2409 0001442 111.0582 249.0564 15.08844248 62301,6917.867,95.437,540.73,538.735,0.0
51811.0,STARLINK-3569,PAYLOAD,2023-04-03 07:51:38,15.088444,0.0001342,53.2151,108.6467,103.986,256.1281,0.00016687,2.369e-05,0.0,0 STARLINK-3569,1 51811U 22017AV  23093.32752703  .00002369  00000-0  16687-3 0  9995,2 51811  53.2151 108.6467 0001342 103.9860 256.1281 15.08844400 62225,6917.867,95.437,540.66,538.804,0.0
51811.0,STARLINK-3569,PAYLOAD,2023-04-03 17:23:57,15.08842888,0.0001321,53.2155,106.8629,91.2027,268.9116,0.00011591,1.557e-05,0.0,0 STARLINK-3569,1 51811U 22017AV  23093.72496775  .00001557  00000-0  11591-3 0  9990,2 51811  53.2155 106.8629 0001321  91.2027 268.9116 15.08842888 62282,6917.872,95.437,540.65,538.823,0.0
51811.0,STARLINK-3569,PAYLOAD,2023-04-04 01:20:54,15.08802666,0.0001711,53.2156,105.3759,100.6187,259.4998,-0.00046004,-7.595e-05,0.0,0 STARLINK-3569,1 51811U 22017AV  23094.05619200 -.00007595  00000-0 -46004-3 0  9994,2 51811  53.2156 105.3759 0001711 100.6187 259.4998 15.08802666 62436,6917.995,95.44,541.043,538.676,0.0
51811.0,STARLINK-3569,PAYLOAD,2023-04-04 09:17:51,15.08791222,0.0001263,53.2148,103.8902,91.6788,268.4348,-0.00058014,-9.496e-05,0.0,0 STARLINK-3569,1 51811U 22017AV  23094.38740537 -.00009496  00000-0 -58014-3 0  9994,2 51811  53.2148 103.8902 0001263  91.6788 268.4348 15.08791222 62386,6918.029,95.441,540.768,539.021,0.0
51811.0,STARLINK-3569,PAYLOAD,2023-04-05 01:11:42,15.08821233,0.0001404,53.2158,100.9183,91.5095,268.6058,3.8946e-05,3.32e-06,0.0,0 STARLINK-3569,1 51811U 22017AV  23095.04980253  .00000332  00000-0  38946-4 0  9990,2 51811  53.2158 100.9183 0001404  91.5095 268.6058 15.08821233 62581,6917.938,95.439,540.774,538.831,0.0
51811.0,STARLINK-3569,PAYLOAD,2023-04-05 05:57:52,15.08828213,0.0001708,53.2161,100.0278,106.2846,253.8334,0.00012499,1.701e-05,0.0,0 STARLINK-3569,1 51811U 22017AV  23095.24851970  .00001701  00000-0  12499-3 0  9990,2 51811  53.2161 100.0278 0001708 106.2846 253.8334 15.08828213 62618,6917.916,95.438,540.963,538.6,0.0
51811.0,STARLINK-3569,PAYLOAD,2023-04-05 13:54:47,15.08843346,0.0001606,53.2151,98.5356,98.1427,261.9748,0.00034074,5.14e-05,0.0,0 STARLINK-3569,1 51811U 22017AV  23095.57971500  .00005140  00000-0  34074-3 0  9992,2 51811  53.2151  98.5356 0001606  98.1427 261.9748 15.08843346 62563,6917.87,95.437,540.846,538.624,0.0
51811.0,STARLINK-3569,PAYLOAD,2023-04-05 17:05:33,15.0885077,0.0001674,53.2165,97.9427,88.3302,271.7882,0.00046933,7.191e-05,0.0,0 STARLINK-3569,1 51811U 22017AV  23095.71219206  .00007191  00000-0  46933-3 0  9991,2 51811  53.2165  97.9427 0001674  88.3302 271.7882 15.08850770 62688,6917.847,95.437,540.871,538.554,0.0
51811.0,STARLINK-3569,PAYLOAD,2023-04-06 07:24:00,15.0889129,0.0001517,53.2144,95.2666,97.8592,262.2572,0.0010135,0.00015901,0.0,0 STARLINK-3569,1 51811U 22017AV  23096.30834119  .00015901  00000-0  10135-2 0  9995,2 51811  53.2144  95.2666 0001517  97.8592 262.2572 15.08891290 62776,6917.724,95.434,540.638,538.539,0.0
51811.0,STARLINK-3569,PAYLOAD,2023-04-06 16:56:18,15.08880924,0.0001528,53.2153,93.4847,85.4938,274.6228,0.00062277,9.648e-05,0.0,0 STARLINK-3569,1 51811U 22017AV  23096.70577452  .00009648  00000-0  62277-3 0  9999,2 51811  53.2153  93.4847 0001528  85.4938 274.6228 15.08880924 62830,6917.755,95.435,540.677,538.563,0.0
51811.0,STARLINK-3569,PAYLOAD,2023-04-07 08:50:10,15.08855174,0.0001443,53.2143,90.5085,88.0051,272.1106,0.00021424,3.125e-05,0.0,0 STARLINK-3569,1 51811U 22017AV  23097.36817160  .00003125  00000-0  21424-3 0  9998,2 51811  53.2143  90.5085 0001443  88.0051 272.1106 15.08855174 62930,6917.834,95.437,540.697,538.701,0.0
51811.0,STARLINK-3569,PAYLOAD,2023-04-07 16:47:05,15.08846976,0.0001479,53.2139,89.0218,86.1054,274.0107,0.00045806,7.011e-05,0.0,0 STARLINK-3569,1 51811U 22017AV  23097.69937351  .00007011  00000-0  45806-3 0  9997,2 51811  53.2139  89.0218 0001479  86.1054 274.0107 15.08846976 62984,6917.859,95.437,540.747,538.701,0.0
51811.0,STARLINK-3569,PAYLOAD,2023-04-08 08:40:57,15.08847801,0.0001532,53.2146,86.0475,90.8358,269.2809,0.00037073,5.618e-05,0.0,0 STARLINK-3569,1 51811U 22017AV  23098.36177295  .00005618  00000-0  37073-3 0  9993,2 51811  53.2146  86.0475 0001532  90.8358 269.2809 15.08847801 63088,6917.857,95.437,540.781,538.662,0.0
51811.0,STARLINK-3569,PAYLOAD,2023-04-09 08:31:44,15.08847938,0.0001505,53.2153,81.587,95.6785,264.4379,0.00025333,3.747e-05,0.0,0 STARLINK-3569,1 51811U 22017AV  23099.35537157  .00003747  00000-0  25333-3 0  9997,2 51811  53.2153  81.5870 0001505  95.6785 264.4379 15.08847938 63239,6917.856,95.437,540.762,538.68,0.0
